{
  "norad_id": 69019,
  "name": "PELICAN-9",
  "history": [
    {
      "epoch": "2026-05-09T20:00:04.000032Z",
      "apogee_km": 509.2472065574111,
      "perigee_km": 500.82220438991135,
      "latitude_deg": -82.46334997690539,
      "longitude_deg": -61.576562478345075,
      "height_km": 535.9626730087309,
      "semi_major_axis_km": 6883.171705473661,
      "eccentricity": 0.000612,
      "inclination_deg": 97.4069,
      "raan_deg": 28.3435,
      "arg_perigee_deg": 144.4717,
      "mean_anomaly_deg": 127.0817,
      "mean_motion_rev_day": 15.20266959
    }
  ]
}