PELICAN-9               
1 69019U 26100AR  26129.83337963 -.00055666  00000+0 -25816-2 0  9999
2 69019  97.4069  28.3435 0006120 144.4717 127.0817 15.20266959  1309
